SatCatId,ObjectName,LaunchYear,OrbitalPeriod,LaunchMass,StatusCode,Inclination,Status,UcsData,OrbitClassEstimated,LaunchSiteCountry,Owner,UseType,Purpose,LaunchVehicleClass,TLE1,TLE2,MeanMotion,Eccentricity,OrbitClass
45160,ONEWEB-0057,2020,109.89,148.0,+,87.88,Active,1,LEO,Kazakhstan,UK,Commercial,Communications,Soyuz,1 45160U 20008AF  23049.60399679  .00000284  00000+0  77623-3 0  9994,2 45160  87.8774 277.6035 0001565  68.0884 292.0409 13.10376555149286,13.10376555,0.0001565,LEO
45161,ONEWEB-0058,2020,109.89,148.0,+,87.88,Active,1,LEO,Kazakhstan,UK,Commercial,Communications,Soyuz,1 45161U 20008AG  23050.35509666 -.00000414  00000+0 -12232-2 0  9999,2 45161  87.8777 277.4929 0001389  74.6266 285.5015 13.10369554150206,13.10369554,0.0001389,LEO
45162,ONEWEB-0059,2020,109.89,148.0,+,87.88,Active,1,LEO,Kazakhstan,UK,Commercial,Communications,Soyuz,1 45162U 20008AH  23050.35197253 -.00000637  00000+0 -18626-2 0  9995,2 45162  87.8772 277.4751 0001357  76.2992 283.8287 13.10374623150096,13.10374623,0.0001357,LEO
45163,ONEWEB-0062,2020,109.89,148.0,+,87.88,Active,1,LEO,Kazakhstan,UK,Commercial,Communications,Soyuz,1 45163U 20008AJ  23050.37846390  .00000527  00000+0  14745-2 0  9995,2 45163  87.8770 277.4583 0001744  81.6611 278.4714 13.10383064149975,13.10383064,0.0001744,LEO
45164,ONEWEB-0065,2020,109.89,148.0,+,87.88,Active,1,LEO,Kazakhstan,UK,Commercial,Communications,Soyuz,1 45164U 20008AK  23050.35665411 -.00000403  00000+0 -11900-2 0  9992,2 45164  87.8777 277.4492 0001635  79.5265 280.6046 13.10378200149656,13.103782,0.0001635,LEO
45178,STARLINK-1138,2020,95.59,227.0,+,53.06,Active,1,LEO,USA,USA,Commercial,Communications,Falcon,1 45178U 20012A   23050.18567818  .00033148  00000+0  22327-2 0  9990,2 45178  53.0561   9.8214 0001470 108.1847 251.9302 15.06418410166209,15.0641841,0.000147,LEO
45179,STARLINK-1143,2020,95.59,227.0,+,53.06,Active,1,LEO,USA,USA,Commercial,Communications,Falcon,1 45179U 20012B   23050.18839455  .00004066  00000+0  29167-3 0  9997,2 45179  53.0560   9.8099 0000892 106.4671 253.6416 15.06402641166207,15.06402641,8.92e-05,LEO
45180,STARLINK-1192,2020,94.63,227.0,P,53.05,Active,1,LEO,USA,USA,Commercial,Communications,Falcon,1 45180U 20012C   23050.14003141  .00050264  00000+0  21889-2 0  9993,2 45180  53.0519 355.5529 0003200 112.8890 247.2444 15.21747070166409,15.2174707,0.00032,LEO
45181,STARLINK-1200,2020,95.59,227.0,+,53.06,Active,1,LEO,USA,USA,Commercial,Communications,Falcon,1 45181U 20012D   23050.17458109  .00024686  00000+0  16681-2 0  9998,2 45181  53.0557   9.8704 0001169  84.9220 275.1902 15.06449874166205,15.06449874,0.0001169,LEO
45182,STARLINK-1201,2020,95.59,227.0,+,53.06,Active,1,LEO,USA,USA,Commercial,Communications,Falcon,1 45182U 20012E   23049.53141456  .00016377  00000+0  11156-2 0  9991,2 45182  53.0552 352.7602 0000990  83.4640 276.6462 15.06407148166888,15.06407148,9.9e-05,LEO
45183,STARLINK-1202,2020,95.59,227.0,+,53.05,Active,1,LEO,USA,USA,Commercial,Communications,Falcon,1 45183U 20012F   23050.14511368  .00021301  00000+0  14440-2 0  9996,2 45183  53.0554  10.0048 0000660  82.3902 277.7162 15.06414985166192,15.06414985,6.6e-05,LEO
45184,STARLINK-1205,2020,95.58,227.0,+,53.05,Active,1,LEO,USA,USA,Commercial,Communications,Falcon,1 45184U 20012G   23050.13575358  .00043414  00000+0  29013-2 0  9996,2 45184  53.0523 350.0512 0000957 128.9665 231.1409 15.06582252166454,15.06582252,9.57e-05,LEO
45185,STARLINK-1216,2020,95.59,227.0,+,53.05,Active,1,LEO,USA,USA,Commercial,Communications,Falcon,1 45185U 20012H   23050.40311369  .00022482  00000+0  15212-2 0  9995,2 45185  53.0533   8.8516 0001014  91.0583 269.0522 15.06453857166243,15.06453857,0.0001014,LEO
45186,STARLINK-1224,2020,95.59,227.0,+,53.05,Active,1,LEO,USA,USA,Commercial,Communications,Falcon,1 45186U 20012J   23050.15248336  .00019891  00000+0  13493-2 0  9990,2 45186  53.0523   9.9688 0001256  73.3774 286.7353 15.06432029166200,15.06432029,0.0001256,LEO
45187,STARLINK-1225,2020,95.59,227.0,+,53.05,Active,1,LEO,USA,USA,Commercial,Communications,Falcon,1 45187U 20012K   23050.15616967  .00018185  00000+0  12356-2 0  9992,2 45187  53.0538   9.9592 0001079  72.7741 287.3366 15.06429571165951,15.06429571,0.0001079,LEO
45188,STARLINK-1228,2020,95.59,227.0,+,53.06,Active,1,LEO,USA,USA,Commercial,Communications,Falcon,1 45188U 20012L   23050.05297292  .00009779  00000+0  67430-3 0  9991,2 45188  53.0554 330.4109 0001563  79.5878 280.5287 15.06409634166406,15.06409634,0.0001563,LEO
45189,STARLINK-1230,2020,95.59,227.0,+,53.05,Active,1,LEO,USA,USA,Commercial,Communications,Falcon,1 45189U 20012M   23050.29254650  .00011645  00000+0  79895-3 0  9992,2 45189  53.0550   9.3459 0001430  95.8835 264.2317 15.06418158165931,15.06418158,0.000143,LEO
45190,STARLINK-1234,2020,95.59,227.0,+,53.06,Active,1,LEO,USA,USA,Commercial,Communications,Falcon,1 45190U 20012N   23050.04560115  .00026796  00000+0  18092-2 0  9997,2 45190  53.0547 330.4532 0001335  76.6388 283.4750 15.06436535166410,15.06436535,0.0001335,LEO
45191,STARLINK-1236,2020,95.59,227.0,+,53.05,Active,1,LEO,USA,USA,Commercial,Communications,Falcon,1 45191U 20012P   23049.96819067  .00026157  00000+0  17680-2 0  9993,2 45191  53.0529  10.8051 0001277  99.0962 261.0172 15.06409149166172,15.06409149,0.0001277,LEO
45192,STARLINK-1237,2020,95.59,227.0,+,53.05,Active,1,LEO,USA,USA,Commercial,Communications,Falcon,1 45192U 20012Q   23049.41161686  .00013239  00000+0  90608-3 0  9990,2 45192  53.0544  13.3010 0001191  82.2807 277.8318 15.06397504166741,15.06397504,0.0001191,LEO
45193,STARLINK-1239,2020,95.59,-1.0,+,53.06,Active,0,LEO,USA,USA,Unknown,Unknown,Falcon,1 45193U 20012R   23050.26306052  .00023087  00000+0  15630-2 0  9997,2 45193  53.0550   9.4794 0001039  88.6749 271.4359 15.06416885165939,15.06416885,0.0001039,LEO
45194,STARLINK-1240,2020,95.59,227.0,+,53.05,Active,1,LEO,USA,USA,Commercial,Communications,Falcon,1 45194U 20012S   23049.60327833  .00020865  00000+0  14151-2 0  9992,2 45194  53.0549  12.4359 0000925  97.5601 262.5494 15.06410010165832,15.0641001,9.25e-05,LEO
45195,STARLINK-1241,2020,94.38,227.0,P,53.05,Active,1,LEO,USA,USA,Commercial,Communications,Falcon,1 45195U 20012T   23050.10835604  .00078027  00000+0  29919-2 0  9991,2 45195  53.0558 352.4248 0003239 141.4788 218.6441 15.25825683166150,15.25825683,0.0003239,LEO
45196,STARLINK-1244,2020,95.59,227.0,+,53.05,Active,1,LEO,USA,USA,Commercial,Communications,Falcon,1 45196U 20012U   23050.18195404  .00024644  00000+0  16651-2 0  9992,2 45196  53.0537   9.8449 0000938  97.4118 262.6977 15.06454175165957,15.06454175,9.38e-05,LEO
45197,STARLINK-1269,2020,95.59,227.0,+,53.05,Active,1,LEO,USA,USA,Commercial,Communications,Falcon,1 45197U 20012V   23050.03820663  .00025355  00000+0  17125-2 0  9996,2 45197  53.0557  10.4827 0001425  79.9407 280.1742 15.06453031165928,15.06453031,0.0001425,LEO
45198,STARLINK-1154,2020,95.59,227.0,+,53.05,Active,1,LEO,USA,USA,Commercial,Communications,Falcon,1 45198U 20012W   23049.56456555  .00002795  00000+0  20638-3 0  9995,2 45198  53.0538 352.6161 0001043 106.2654 253.8449 15.06413125166106,15.06413125,0.0001043,LEO
45199,STARLINK-1197,2020,95.59,227.0,+,53.05,Active,1,LEO,USA,USA,Commercial,Communications,Falcon,1 45199U 20012X   23049.56826020  .00031661  00000+0  21328-2 0  9994,2 45199  53.0535 352.6009 0001101  90.2866 269.8249 15.06436000166109,15.06436,0.0001101,LEO
45201,STARLINK-1199,2020,95.59,227.0,+,53.05,Active,1,LEO,USA,USA,Commercial,Communications,Falcon,1 45201U 20012Z   23049.57565087  .00031568  00000+0  21282-2 0  9997,2 45201  53.0530 352.5660 0001456  76.3584 283.7567 15.06409221166108,15.06409221,0.0001456,LEO
45202,STARLINK-1203,2020,93.5,227.0,P,52.96,Active,1,LEO,USA,USA,Commercial,Communications,Falcon,1 45202U 20012AA  23050.06185159  .00138854  00000+0  33358-2 0  9995,2 45202  52.9613 325.2409 0007841 165.8329 194.2895 15.40335605166474,15.40335605,0.0007841,LEO
45204,STARLINK-1206,2020,95.59,227.0,+,53.05,Active,1,LEO,USA,USA,Commercial,Communications,Falcon,1 45204U 20012AC  23050.13220871  .00023921  00000+0  16178-2 0  9995,2 45204  53.0548 350.0650 0001493  74.1084 286.0069 15.06435542166191,15.06435542,0.0001493,LEO
45205,STARLINK-1208,2020,95.59,227.0,+,53.06,Active,1,LEO,USA,USA,Commercial,Communications,Falcon,1 45205U 20012AD  23050.35336571  .00013366  00000+0  91384-3 0  9990,2 45205  53.0560 349.0685 0001323  86.5917 273.5223 15.06426337166236,15.06426337,0.0001323,LEO
45206,STARLINK-1209,2020,95.59,227.0,+,53.05,Active,1,LEO,USA,USA,Commercial,Communications,Falcon,1 45206U 20012AE  23049.78390649  .00009517  00000+0  65698-3 0  9994,2 45206  53.0558 331.6248 0001571  76.3735 283.7429 15.06398259166407,15.06398259,0.0001571,LEO
45207,STARLINK-1210,2020,95.59,227.0,+,53.05,Active,1,LEO,USA,USA,Commercial,Communications,Falcon,1 45207U 20012AF  23049.24759566  .00009749  00000+0  67248-3 0  9993,2 45207  53.0521 354.0377 0001230  81.8756 278.2373 15.06400886166997,15.06400886,0.000123,LEO
45208,STARLINK-1211,2020,95.64,227.0,+,53.0,Active,1,LEO,USA,USA,Commercial,Communications,Falcon,1 45208U 20012AG  23049.80327753  .00031259  00000+0  21504-2 0  9990,2 45208  52.9996 351.5320 0000955  93.5782 266.5315 15.05660976166076,15.05660976,9.55e-05,LEO
45210,STARLINK-1219,2020,95.59,227.0,+,53.05,Active,1,LEO,USA,USA,Commercial,Communications,Falcon,1 45210U 20012AJ  23050.11377954  .00001047  00000+0  89173-4 0  9997,2 45210  53.0539 350.1493 0001528  85.6482 274.4681 15.06389960166184,15.0638996,0.0001528,LEO
45212,STARLINK-1231,2020,95.59,227.0,+,53.05,Active,1,LEO,USA,USA,Commercial,Communications,Falcon,1 45212U 20012AL  23050.14695312  .00023248  00000+0  15729-2 0  9994,2 45212  53.0531 350.0030 0001109  85.1090 275.0025 15.06436991166196,15.06436991,0.0001109,LEO
